[{"OBJECT_NAME":"STARLINK-3887","OBJECT_ID":"2022-049AK","EPOCH":"2026-03-09T22:56:16.518336","MEAN_MOTION":15.08824226,"ECCENTRICITY":0.00010931,"INCLINATION":53.217,"RA_OF_ASC_NODE":57.9255,"ARG_OF_PERICENTER":78.1117,"MEAN_ANOMALY":281.9998,"EPHEMERIS_TYPE":0,"CLASSIFICATION_TYPE":"U","NORAD_CAT_ID":52484,"ELEMENT_SET_NO":999,"REV_AT_EPOCH":21229,"BSTAR":0.00012926291,"MEAN_MOTION_DOT":1.769e-5,"MEAN_MOTION_DDOT":0},{"OBJECT_NAME":"ELECTRON KICK STAGE R\/B","OBJECT_ID":"2023-035A","EPOCH":"2026-03-09T00:22:03.988416","MEAN_MOTION":15.09409521,"ECCENTRICITY":0.00017263,"INCLINATION":44.1756,"RA_OF_ASC_NODE":311.3301,"ARG_OF_PERICENTER":9.8979,"MEAN_ANOMALY":350.1918,"EPHEMERIS_TYPE":0,"CLASSIFICATION_TYPE":"U","NORAD_CAT_ID":55908,"ELEMENT_SET_NO":999,"REV_AT_EPOCH":16322,"BSTAR":0.00066616987,"MEAN_MOTION_DOT":0.00010608,"MEAN_MOTION_DDOT":0}]
